{"type": "FeatureCollection", "features": [ {"type": "Feature", "properties": {"norad_id": 34375, "name": "IRIDIUM 33 DEB", "group": "iridium-33-debris", "lat": 48.984474181309736, "lon": -5.409848862297684, "alt_km": 766.3272727440335, "timestamp": "2025-12-22T15:43:49.393573+00:00", "meta": {"OBJECT_NAME": "IRIDIUM 33 DEB", "OBJECT_ID": "1997-051FT", "EPOCH": "2025-12-21T18:54:05.228064", "MEAN_MOTION": 14.18007741, "ECCENTRICITY": 0.01037074, "INCLINATION": 86.4322, "RA_OF_ASC_NODE": 179.0535, "ARG_OF_PERICENTER": 98.4333, "MEAN_ANOMALY": 284.1213, "EPHEMERIS_TYPE": 0, "CLASSIFICATION_TYPE": "U", "NORAD_CAT_ID": 34375, "ELEMENT_SET_NO": 999, "REV_AT_EPOCH": 86840, "BSTAR": 0.00033721462, "MEAN_MOTION_DOT": 7.48e-06, "MEAN_MOTION_DDOT": 0}, "tle": {"line1": "1 34375U 97051FT  25355.78756051  .00000748  00000+0  33721-3 0  9990", "line2": "2 34375  86.4322 179.0535 0103707  98.4333 284.1213 14.18007741868407"}}, "geometry": {"type": "Point", "coordinates": [-5.409848862297684, 48.984474181309736]}}, {"type": "Feature", "properties": {"norad_id": 34376, "name": "IRIDIUM 33 DEB", "group": "iridium-33-debris", "lat": -66.25173828962161, "lon": -6.3816440130754115, "alt_km": 710.4750732279645, "timestamp": "2025-12-22T15:43:49.393583+00:00", "meta": {"OBJECT_NAME": "IRIDIUM 33 DEB", "OBJECT_ID": "1997-051FU", "EPOCH": "2025-12-21T12:07:24.797568", "MEAN_MOTION": 14.62675501, "ECCENTRICITY": 0.00281411, "INCLINATION": 86.2976, "RA_OF_ASC_NODE": 2.5986, "ARG_OF_PERICENTER": 137.7647, "MEAN_ANOMALY": 222.5739, "EPHEMERIS_TYPE": 0, "CLASSIFICATION_TYPE": "U", "NORAD_CAT_ID": 34376, "ELEMENT_SET_NO": 999, "REV_AT_EPOCH": 88135, "BSTAR": 0.0010610953, "MEAN_MOTION_DOT": 5.451e-05, "MEAN_MOTION_DDOT": 0}, "tle": {"line1": "1 34376U 97051FU  25355.50514812  .00005451  00000+0  10611-2 0  9996", "line2": "2 34376  86.2976   2.5986 0028141 137.7647 222.5739 14.62675501881356"}}, "geometry": {"type": "Point", "coordinates": [-6.3816440130754115, -66.25173828962161]}}, {"type": "Feature", "properties": {"norad_id": 34486, "name": "IRIDIUM 33 DEB", "group": "iridium-33-debris", "lat": -79.19393617116648, "lon": -153.25184307392348, "alt_km": 595.7738286743661, "timestamp": "2025-12-22T15:43:49.393594+00:00", "meta": {"OBJECT_NAME": "IRIDIUM 33 DEB", "OBJECT_ID": "1997-051GB", "EPOCH": "2025-12-21T13:27:11.413728", "MEAN_MOTION": 14.96156216, "ECCENTRICITY": 0.0013923, "INCLINATION": 86.3924, "RA_OF_ASC_NODE": 7.952, "ARG_OF_PERICENTER": 87.2037, "MEAN_ANOMALY": 39.211, "EPHEMERIS_TYPE": 0, "CLASSIFICATION_TYPE": "U", "NORAD_CAT_ID": 34486, "ELEMENT_SET_NO": 999, "REV_AT_EPOCH": 89118, "BSTAR": 0.0016335, "MEAN_MOTION_DOT": 0.00018477, "MEAN_MOTION_DDOT": 0}, "tle": {"line1": "1 34486U 97051GB  25355.56054877  .00018477  00000+0  16335-2 0  9995", "line2": "2 34486  86.3924   7.9520 0013923  87.2037  39.2110 14.96156216891181"}}, "geometry": {"type": "Point", "coordinates": [-153.25184307392348, -79.19393617116648]}}, {"type": "Feature", "properties": {"norad_id": 34487, "name": "IRIDIUM 33 DEB", "group": "iridium-33-debris", "lat": -13.917073126074275, "lon": -170.98407119145597, "alt_km": 755.1267673410048, "timestamp": "2025-12-22T15:43:49.393604+00:00", "meta": {"OBJECT_NAME": "IRIDIUM 33 DEB", "OBJECT_ID": "1997-051GC", "EPOCH": "2025-12-21T19:41:03.775776", "MEAN_MOTION": 14.4322687, "ECCENTRICITY": 0.00332281, "INCLINATION": 86.3429, "RA_OF_ASC_NODE": 8.4674, "ARG_OF_PERICENTER": 100.1253, "MEAN_ANOMALY": 76.4458, "EPHEMERIS_TYPE": 0, "CLASSIFICATION_TYPE": "U", "NORAD_CAT_ID": 34487, "ELEMENT_SET_NO": 999, "REV_AT_EPOCH": 88379, "BSTAR": 0.00014479929, "MEAN_MOTION_DOT": 5.11e-06, "MEAN_MOTION_DDOT": 0}, "tle": {"line1": "1 34487U 97051GC  25355.82018259  .00000511  00000+0  14480-3 0  9999", "line2": "2 34487  86.3429   8.4674 0033228 100.1253  76.4458 14.43226870883795"}}, "geometry": {"type": "Point", "coordinates": [-170.98407119145597, -13.917073126074275]}}, {"type": "Feature", "properties": {"norad_id": 34488, "name": "IRIDIUM 33 DEB", "group": "iridium-33-debris", "lat": 36.08609791912597, "lon": -56.42222268265168, "alt_km": 461.13026393764085, "timestamp": "2025-12-22T15:43:49.393614+00:00", "meta": {"OBJECT_NAME": "IRIDIUM 33 DEB", "OBJECT_ID": "1997-051GD", "EPOCH": "2025-12-20T21:13:54.490080", "MEAN_MOTION": 15.31302202, "ECCENTRICITY": 0.0010948, "INCLINATION": 86.3254, "RA_OF_ASC_NODE": 301.7725, "ARG_OF_PERICENTER": 38.0894, "MEAN_ANOMALY": 322.1127, "EPHEMERIS_TYPE": 0, "CLASSIFICATION_TYPE": "U", "NORAD_CAT_ID": 34488, "ELEMENT_SET_NO": 999, "REV_AT_EPOCH": 89364, "BSTAR": 0.0030791, "MEAN_MOTION_DOT": 0.00094223, "MEAN_MOTION_DDOT": 0}, "tle": {"line1": "1 34488U 97051GD  25354.88465845  .00094223  00000+0  30791-2 0  9997", "line2": "2 34488  86.3254 301.7725 0010948  38.0894 322.1127 15.31302202893643"}}, "geometry": {"type": "Point", "coordinates": [-56.42222268265168, 36.08609791912597]}}, {"type": "Feature", "properties": {"norad_id": 34492, "name": "IRIDIUM 33 DEB", "group": "iridium-33-debris", "lat": 22.820844702824726, "lon": -27.892010946623245, "alt_km": 940.5590593660518, "timestamp": "2025-12-22T15:43:49.393625+00:00", "meta": {"OBJECT_NAME": "IRIDIUM 33 DEB", "OBJECT_ID": "1997-051GH", "EPOCH": "2025-12-21T16:53:32.785152", "MEAN_MOTION": 14.25874095, "ECCENTRICITY": 0.01886842, "INCLINATION": 86.4714, "RA_OF_ASC_NODE": 331.0047, "ARG_OF_PERICENTER": 209.0268, "MEAN_ANOMALY": 332.2714, "EPHEMERIS_TYPE": 0, "CLASSIFICATION_TYPE": "U", "NORAD_CAT_ID": 34492, "ELEMENT_SET_NO": 999, "REV_AT_EPOCH": 85186, "BSTAR": 0.0022430029, "MEAN_MOTION_DOT": 6.457e-05, "MEAN_MOTION_DDOT": 0}, "tle": {"line1": "1 34492U 97051GH  25355.70385168  .00006457  00000+0  22430-2 0  9996", "line2": "2 34492  86.4714 331.0047 0188684 209.0268 332.2714 14.25874095851869"}}, "geometry": {"type": "Point", "coordinates": [-27.892010946623245, 22.820844702824726]}}, {"type": "Feature", "properties": {"norad_id": 34497, "name": "IRIDIUM 33 DEB", "group": "iridium-33-debris", "lat": -39.75908334417067, "lon": 45.06047574518207, "alt_km": 752.1320137957491, "timestamp": "2025-12-22T15:43:49.393635+00:00", "meta": {"OBJECT_NAME": "IRIDIUM 33 DEB", "OBJECT_ID": "1997-051GN", "EPOCH": "2025-12-21T03:02:18.965760", "MEAN_MOTION": 14.27475874, "ECCENTRICITY": 0.00780469, "INCLINATION": 86.2771, "RA_OF_ASC_NODE": 48.8187, "ARG_OF_PERICENTER": 312.1215, "MEAN_ANOMALY": 76.3389, "EPHEMERIS_TYPE": 0, "CLASSIFICATION_TYPE": "U", "NORAD_CAT_ID": 34497, "ELEMENT_SET_NO": 999, "REV_AT_EPOCH": 87003, "BSTAR": 0.00042941712, "MEAN_MOTION_DOT": 1.107e-05, "MEAN_MOTION_DDOT": 0}, "tle": {"line1": "1 34497U 97051GN  25355.12660840  .00001107  00000+0  42942-3 0  9998", "line2": "2 34497  86.2771  48.8187 0078046 312.1215  76.3389 14.27475874870039"}}, "geometry": {"type": "Point", "coordinates": [45.06047574518207, -39.75908334417067]}}, {"type": "Feature", "properties": {"norad_id": 34508, "name": "IRIDIUM 33 DEB", "group": "iridium-33-debris", "lat": 29.681749206351014, "lon": -83.63318246387784, "alt_km": 715.0601485680781, "timestamp": "2025-12-22T15:43:49.393646+00:00", "meta": {"OBJECT_NAME": "IRIDIUM 33 DEB", "OBJECT_ID": "1997-051GZ", "EPOCH": "2025-12-22T06:41:24.031968", "MEAN_MOTION": 14.38495257, "ECCENTRICITY": 0.00666176, "INCLINATION": 86.3708, "RA_OF_ASC_NODE": 98.5996, "ARG_OF_PERICENTER": 142.363, "MEAN_ANOMALY": 218.2258, "EPHEMERIS_TYPE": 0, "CLASSIFICATION_TYPE": "U", "NORAD_CAT_ID": 34508, "ELEMENT_SET_NO": 999, "REV_AT_EPOCH": 87446, "BSTAR": 0.0011650926, "MEAN_MOTION_DOT": 3.671e-05, "MEAN_MOTION_DDOT": 0}, "tle": {"line1": "1 34508U 97051GZ  25356.27875037  .00003671  00000+0  11651-2 0  9994", "line2": "2 34508  86.3708  98.5996 0066617 142.3630 218.2258 14.38495257874460"}}, "geometry": {"type": "Point", "coordinates": [-83.63318246387784, 29.681749206351014]}}, {"type": "Feature", "properties": {"norad_id": 34521, "name": "IRIDIUM 33 DEB", "group": "iridium-33-debris", "lat": 42.99469564705189, "lon": -157.20307195320598, "alt_km": 677.1089434258502, "timestamp": "2025-12-22T15:43:49.393656+00:00", "meta": {"OBJECT_NAME": "IRIDIUM 33 DEB", "OBJECT_ID": "1997-051HN", "EPOCH": "2025-12-22T01:58:44.099904", "MEAN_MOTION": 14.6343915, "ECCENTRICITY": 0.00026909, "INCLINATION": 86.3786, "RA_OF_ASC_NODE": 26.4343, "ARG_OF_PERICENTER": 176.1617, "MEAN_ANOMALY": 183.9616, "EPHEMERIS_TYPE": 0, "CLASSIFICATION_TYPE": "U", "NORAD_CAT_ID": 34521, "ELEMENT_SET_NO": 999, "REV_AT_EPOCH": 88609, "BSTAR": 0.00078902546, "MEAN_MOTION_DOT": 4.104e-05, "MEAN_MOTION_DDOT": 0}, "tle": {"line1": "1 34521U 97051HN  25356.08245486  .00004104  00000+0  78903-3 0  9993", "line2": "2 34521  86.3786  26.4343 0002690 176.1617 183.9616 14.63439150886094"}}, "geometry": {"type": "Point", "coordinates": [-157.20307195320598, 42.99469564705189]}}, {"type": "Feature", "properties": {"norad_id": 34525, "name": "IRIDIUM 33 DEB", "group": "iridium-33-debris", "lat": -54.43980338816978, "lon": 37.51922410068913, "alt_km": 758.6560415226277, "timestamp": "2025-12-22T15:43:49.393666+00:00", "meta": {"OBJECT_NAME": "IRIDIUM 33 DEB", "OBJECT_ID": "1997-051HS", "EPOCH": "2025-12-22T02:55:46.289856", "MEAN_MOTION": 14.42926723, "ECCENTRICITY": 0.00063948, "INCLINATION": 86.3719, "RA_OF_ASC_NODE": 42.8388, "ARG_OF_PERICENTER": 73.6651, "MEAN_ANOMALY": 343.0258, "EPHEMERIS_TYPE": 0, "CLASSIFICATION_TYPE": "U", "NORAD_CAT_ID": 34525, "ELEMENT_SET_NO": 999, "REV_AT_EPOCH": 88223, "BSTAR": 0.00030724354, "MEAN_MOTION_DOT": 1.047e-05, "MEAN_MOTION_DDOT": 0}, "tle": {"line1": "1 34525U 97051HS  25356.12206354  .00001047  00000+0  30724-3 0  9995", "line2": "2 34525  86.3719  42.8388 0006394  73.6651 343.0258 14.42926723882236"}}, "geometry": {"type": "Point", "coordinates": [37.51922410068913, -54.43980338816978]}}]}